{
"type": "FeatureCollection",
"name": "airports_seattle",
"crs": { "type": "name", "properties": { "name": "urn:ogc:def:crs:OGC:1.3:CRS84" } },
"features": [
{ "type": "Feature", "properties": { "OBJECTID": 15556, "GLOBAL_ID": "87355634-560A-4D0D-8DAB-A432A3A0DEBB", "IDENT": "WA53", "NAME": "Harborview Medical Center", "LATITUDE": "47-36-10.1300N", "LONGITUDE": "122-19-28.8600W", "ELEVATION": 322, "ICAO_ID": null, "TYPE_CODE": "HP", "SERVCITY": "SEATTLE", "STATE": "WA", "COUNTRY": "UNITED STATES", "OPERSTATUS": "OPERATIONAL", "PRIVATEUSE": 1, "IAPEXISTS": 0, "DODHIFLIP": 0, "FAR91": 0, "FAR93": 0, "MIL_CODE": "CIVIL", "AIRANAL": "NO OBJECTION", "US_HIGH": 0, "US_LOW": 0, "AK_HIGH": 0, "AK_LOW": 0, "US_AREA": 0, "PACIFIC": 0 }, "geometry": { "type": "Point", "coordinates": [ -122.324698224583997, 47.602819506224201, 0.0 ] } },
{ "type": "Feature", "properties": { "OBJECTID": 15557, "GLOBAL_ID": "36E57884-6ACD-46FF-AB64-95C486CABADF", "IDENT": "WA54", "NAME": "1001 Fourth Avenue Plaza", "LATITUDE": "47-36-24.3530N", "LONGITUDE": "122-20-01.4550W", "ELEVATION": 716, "ICAO_ID": null, "TYPE_CODE": "HP", "SERVCITY": "SEATTLE", "STATE": "WA", "COUNTRY": "UNITED STATES", "OPERSTATUS": "OPERATIONAL", "PRIVATEUSE": 1, "IAPEXISTS": 0, "DODHIFLIP": 0, "FAR91": 0, "FAR93": 0, "MIL_CODE": "CIVIL", "AIRANAL": "NO OBJECTION", "US_HIGH": 0, "US_LOW": 0, "AK_HIGH": 0, "AK_LOW": 0, "US_AREA": 0, "PACIFIC": 0 }, "geometry": { "type": "Point", "coordinates": [ -122.333752393984, 47.6067703384388, 0.0 ] } },
{ "type": "Feature", "properties": { "OBJECTID": 15560, "GLOBAL_ID": "A9D3BA88-AB42-4AF9-89EB-6C3E855D47F3", "IDENT": "9WA6", "NAME": "Puget Sound Plaza", "LATITUDE": "47-36-29.3540N", "LONGITUDE": "122-19-54.4560W", "ELEVATION": 670, "ICAO_ID": null, "TYPE_CODE": "HP", "SERVCITY": "SEATTLE", "STATE": "WA", "COUNTRY": "UNITED STATES", "OPERSTATUS": "OPERATIONAL", "PRIVATEUSE": 1, "IAPEXISTS": 0, "DODHIFLIP": 0, "FAR91": 0, "FAR93": 0, "MIL_CODE": "CIVIL", "AIRANAL": "NO OBJECTION", "US_HIGH": 0, "US_LOW": 0, "AK_HIGH": 0, "AK_LOW": 0, "US_AREA": 0, "PACIFIC": 0 }, "geometry": { "type": "Point", "coordinates": [ -122.331808227004998, 47.608159505724998, 0.0 ] } },
{ "type": "Feature", "properties": { "OBJECTID": 15551, "GLOBAL_ID": "584BD0C9-3F93-4B38-8A22-58400A094BA8", "IDENT": "8WA9", "NAME": "Broadcast House Helistop", "LATITUDE": "47-37-10.4500N", "LONGITUDE": "122-20-55.3600W", "ELEVATION": 175, "ICAO_ID": null, "TYPE_CODE": "HP", "SERVCITY": "SEATTLE", "STATE": "WA", "COUNTRY": "UNITED STATES", "OPERSTATUS": "OPERATIONAL", "PRIVATEUSE": 1, "IAPEXISTS": 0, "DODHIFLIP": 0, "FAR91": 0, "FAR93": 0, "MIL_CODE": "CIVIL", "AIRANAL": "NO OBJECTION", "US_HIGH": 0, "US_LOW": 0, "AK_HIGH": 0, "AK_LOW": 0, "US_AREA": 0, "PACIFIC": 0 }, "geometry": { "type": "Point", "coordinates": [ -122.348726010457, 47.619575059467799, 0.0 ] } },
{ "type": "Feature", "properties": { "OBJECTID": 15553, "GLOBAL_ID": "34885390-0BAD-4ACE-AA76-95BD3B720B96", "IDENT": "WA55", "NAME": "Elliott Park", "LATITUDE": "47-37-11.3530N", "LONGITUDE": "122-21-38.4570W", "ELEVATION": 100, "ICAO_ID": null, "TYPE_CODE": "HP", "SERVCITY": "SEATTLE", "STATE": "WA", "COUNTRY": "UNITED STATES", "OPERSTATUS": "OPERATIONAL", "PRIVATEUSE": 1, "IAPEXISTS": 0, "DODHIFLIP": 0, "FAR91": 0, "FAR93": 0, "MIL_CODE": "CIVIL", "AIRANAL": "NO OBJECTION", "US_HIGH": 0, "US_LOW": 0, "AK_HIGH": 0, "AK_LOW": 0, "US_AREA": 0, "PACIFIC": 0 }, "geometry": { "type": "Point", "coordinates": [ -122.360697401435999, 47.619825892167398, 0.0 ] } },
{ "type": "Feature", "properties": { "OBJECTID": 15558, "GLOBAL_ID": "EDE8CC7A-738A-40AF-80FB-16727730D9B7", "IDENT": "WN01", "NAME": "Seattle Private Number One", "LATITUDE": "47-37-17.3530N", "LONGITUDE": "122-20-32.4560W", "ELEVATION": 120, "ICAO_ID": null, "TYPE_CODE": "HP", "SERVCITY": "SEATTLE", "STATE": "WA", "COUNTRY": "UNITED STATES", "OPERSTATUS": "OPERATIONAL", "PRIVATEUSE": 1, "IAPEXISTS": 0, "DODHIFLIP": 0, "FAR91": 0, "FAR93": 0, "MIL_CODE": "CIVIL", "AIRANAL": "NOT ANALYZED", "US_HIGH": 0, "US_LOW": 0, "AK_HIGH": 0, "AK_LOW": 0, "US_AREA": 0, "PACIFIC": 0 }, "geometry": { "type": "Point", "coordinates": [ -122.342363787897, 47.621492560266503, 0.0 ] } },
{ "type": "Feature", "properties": { "OBJECTID": 15555, "GLOBAL_ID": "7646FE30-6960-4E4E-ADEB-B4E946373AB2", "IDENT": "WN16", "NAME": "Komo Tv", "LATITUDE": "47-37-18.0000N", "LONGITUDE": "122-20-41.0000W", "ELEVATION": 363, "ICAO_ID": null, "TYPE_CODE": "HP", "SERVCITY": "SEATTLE", "STATE": "WA", "COUNTRY": "UNITED STATES", "OPERSTATUS": "OPERATIONAL", "PRIVATEUSE": 1, "IAPEXISTS": 0, "DODHIFLIP": 0, "FAR91": 0, "FAR93": 0, "MIL_CODE": "CIVIL", "AIRANAL": "CONDITIONAL", "US_HIGH": 0, "US_LOW": 0, "AK_HIGH": 0, "AK_LOW": 0, "US_AREA": 0, "PACIFIC": 0 }, "geometry": { "type": "Point", "coordinates": [ -122.344737121321003, 47.621672283015499, 0.0 ] } },
{ "type": "Feature", "properties": { "OBJECTID": 15466, "GLOBAL_ID": "408340ED-ADD3-4D2B-BA64-053ABDBB9E74", "IDENT": "0W0", "NAME": "Seattle Seaplanes", "LATITUDE": "47-37-39.3530N", "LONGITUDE": "122-19-54.4570W", "ELEVATION": 14, "ICAO_ID": null, "TYPE_CODE": "SP", "SERVCITY": "SEATTLE", "STATE": "WA", "COUNTRY": "UNITED STATES", "OPERSTATUS": "OPERATIONAL", "PRIVATEUSE": 0, "IAPEXISTS": 0, "DODHIFLIP": 0, "FAR91": 0, "FAR93": 0, "MIL_CODE": "CIVIL", "AIRANAL": "NOT ANALYZED", "US_HIGH": 0, "US_LOW": 0, "AK_HIGH": 0, "AK_LOW": 0, "US_AREA": 0, "PACIFIC": 0 }, "geometry": { "type": "Point", "coordinates": [ -122.331808509672001, 47.627603673745199, 0.0 ] } },
{ "type": "Feature", "properties": { "OBJECTID": 15562, "GLOBAL_ID": "DE83A160-6DD9-4205-99AB-8DB47BF2973F", "IDENT": "W55", "NAME": "Kenmore Air", "LATITUDE": "47-37-44.3530N", "LONGITUDE": "122-20-19.4560W", "ELEVATION": 14, "ICAO_ID": null, "TYPE_CODE": "SP", "SERVCITY": "SEATTLE", "STATE": "WA", "COUNTRY": "UNITED STATES", "OPERSTATUS": "OPERATIONAL", "PRIVATEUSE": 0, "IAPEXISTS": 0, "DODHIFLIP": 0, "FAR91": 0, "FAR93": 0, "MIL_CODE": "CIVIL", "AIRANAL": "NOT ANALYZED", "US_HIGH": 0, "US_LOW": 0, "AK_HIGH": 0, "AK_LOW": 0, "US_AREA": 0, "PACIFIC": 0 }, "geometry": { "type": "Point", "coordinates": [ -122.338752678118993, 47.628992561056002, 0.0 ] } }
]
}
