{
  "type": "FeatureCollection",
  "name": "secondary_constraints_seattle",
  "crs": { "type": "name", "properties": { "name": "EPSG:4326" } },
  "features": [
    {
      "type": "Feature",
      "properties": {
        "name_snake": "harborview_quiet_zone",
        "altitude": 400,
        "priority": "high"
      },
      "geometry": {
        "type": "Polygon",
        "coordinates": [
          [
            [-122.3235, 47.6055],
            [-122.3205, 47.6055],
            [-122.3205, 47.6025],
            [-122.3235, 47.6025],
            [-122.3235, 47.6055]
          ]
        ]
      }
    },

    {
      "type": "Feature",
      "properties": {
        "name_snake": "elliott_bay_corridor_eastwest",
        "altitude": 400,
        "priority": "medium"
      },
      "geometry": {
        "type": "LineString",
        "coordinates": [
          [-122.3600, 47.6050],
          [-122.3400, 47.6050],
          [-122.3200, 47.6050]
        ]
      }
    },

    {
      "type": "Feature",
      "properties": {
        "name_snake": "seattle_center_open_air_assembly",
        "altitude": 400,
        "priority": "medium"
      },
      "geometry": {
        "type": "Polygon",
        "coordinates": [
          [
           [-122.3500, 47.6186],
           [-122.3472, 47.6214],
           [-122.3472, 47.6242],
           [-122.3525, 47.6242],
           [-122.3525, 47.6197],
           [-122.3500, 47.6186]
          ]
        ]
      }
    },

   {
      "type": "Feature",
      "properties": {
        "name_snake": "lake_union_flotaplane_operations",
        "altitude": 400,
        "priority": "medium"
      },
      "geometry": {
        "type": "Polygon",
        "coordinates": [
          [
           [-122.3400, 47.6222],
           [-122.3400, 47.6375],
           [-122.3444, 47.6441],
           [-122.3289, 47.6441],
           [-122.3317, 47.6222],
           [-122.3400, 47.6222]
          ]
        ]
      }
    }




  ]
}
