{
"type": "FeatureCollection",
"name": "stadiums_3nm",
"crs": { "type": "name", "properties": { "name": "urn:ogc:def:crs:OGC:1.3:CRS84" } },
"features": [
{ "type": "Feature", "properties": { "OBJECTID": 179, "GLOBAL_ID": "F3A8285A-F03D-4785-A77D-6DE9FDC61BB0", "NAME": "T-Mobile Park", "LATITUDE": "47-35-29.29N", "LONGITUDE": "122-19-56.46W", "CITY": "Seattle", "STATE": "WA", "STATUS_CODE": "Open", "OPENING_ON": null, "name_snake": "stadium_3nm", "priority": "high" }, "geometry": { "type": "Polygon", "coordinates": [ [ [ -122.282454492910318, 47.591475059787491 ], [ -122.282694825114646, 47.588175680865092 ], [ -122.283413507197196, 47.584907871762624 ], [ -122.284603617856604, 47.581703112136147 ], [ -122.286253695676635, 47.57859227997519 ], [ -122.288347849505882, 47.57560535367751 ], [ -122.290865911498159, 47.572771122595853 ], [ -122.293783631339977, 47.570116908873032 ], [ -122.297072909794281, 47.567668303279255 ], [ -122.30070206931147, 47.565448917635194 ], [ -122.304636159101463, 47.563480156248495 ], [ -122.308837291728949, 47.561781008609977 ], [ -122.313265007990282, 47.560367865390432 ], [ -122.317876666557311, 47.559254359553854 ], [ -122.322627854637076, 47.558451234156564 ], [ -122.327472815691138, 47.557966238140679 ], [ -122.332364890096002, 47.557804051153816 ], [ -122.337256964500853, 47.557966238140679 ], [ -122.342101925554914, 47.558451234156564 ], [ -122.34685311363468, 47.559254359553854 ], [ -122.351464772201723, 47.560367865390432 ], [ -122.355892488463013, 47.561781008609977 ], [ -122.360093621090527, 47.563480156248495 ], [ -122.364027710880521, 47.565448917635194 ], [ -122.36765687039771, 47.567668303279255 ], [ -122.370946148852013, 47.570116908873032 ], [ -122.373863868693832, 47.572771122595853 ], [ -122.376381930686108, 47.57560535367751 ], [ -122.378476084515356, 47.57859227997519 ], [ -122.380126162335401, 47.581703112136147 ], [ -122.381316272994809, 47.584907871762624 ], [ -122.382034955077316, 47.588175680865092 ], [ -122.382275287281672, 47.591475059787491 ], [ -122.382034955077316, 47.594774230714279 ], [ -122.381316272994809, 47.598041423823098 ], [ -122.380126162335401, 47.601245183130196 ], [ -122.378476084515356, 47.604354669087726 ], [ -122.376381930686108, 47.607339955031826 ], [ -122.373863868693832, 47.61017231464762 ], [ -122.370946148852013, 47.612824497711678 ], [ -122.36765687039771, 47.615270991490874 ], [ -122.364027710880521, 47.617488265320418 ], [ -122.360093621090527, 47.619454996048475 ], [ -122.355892488463013, 47.621152272221323 ], [ -122.351464772201723, 47.622563775087507 ], [ -122.34685311363468, 47.6236759347209 ], [ -122.342101925554914, 47.624478059798982 ], [ -122.337256964500853, 47.62496243982136 ], [ -122.332364890096002, 47.625124418812661 ], [ -122.327472815691138, 47.62496243982136 ], [ -122.322627854637076, 47.624478059798982 ], [ -122.317876666557311, 47.6236759347209 ], [ -122.313265007990282, 47.622563775087507 ], [ -122.308837291728949, 47.621152272221323 ], [ -122.304636159101463, 47.619454996048475 ], [ -122.30070206931147, 47.617488265320418 ], [ -122.297072909794281, 47.615270991490874 ], [ -122.293783631339977, 47.612824497711678 ], [ -122.290865911498159, 47.61017231464762 ], [ -122.288347849505882, 47.607339955031826 ], [ -122.286253695676635, 47.604354669087726 ], [ -122.284603617856604, 47.601245183130196 ], [ -122.283413507197196, 47.598041423823098 ], [ -122.282694825114646, 47.594774230714279 ], [ -122.282454492910318, 47.591475059787491 ] ] ] } },
{ "type": "Feature", "properties": { "OBJECTID": 95, "GLOBAL_ID": "A6F44A6F-C603-42B7-9D84-1CAC9600F859", "NAME": "Lumen Field", "LATITUDE": "47-35-42.61N", "LONGITUDE": "122-19-53.62W", "CITY": "Seattle", "STATE": "WA", "STATUS_CODE": "Open", "OPENING_ON": null, "name_snake": "stadium_3nm", "priority": "high" }, "geometry": { "type": "Polygon", "coordinates": [ [ [ -122.281665604670337, 47.595175060068485 ], [ -122.281905936874679, 47.591875914412654 ], [ -122.282624618957215, 47.588608336332662 ], [ -122.283814729616623, 47.585403803259581 ], [ -122.285464807436654, 47.582293191000964 ], [ -122.287558961265873, 47.57930647583656 ], [ -122.290077023258149, 47.576472445085479 ], [ -122.292994743099996, 47.573818418960954 ], [ -122.2962840215543, 47.571369986426156 ], [ -122.29991318107146, 47.569150757634766 ], [ -122.303847270861453, 47.567182135383497 ], [ -122.308048403488968, 47.565483107822857 ], [ -122.312476119750301, 47.564070064466939 ], [ -122.31708777831733, 47.562956637317704 ], [ -122.32183896639711, 47.562153568673459 ], [ -122.326683927451157, 47.561668606929565 ], [ -122.331576001856021, 47.561506431403508 ], [ -122.336468076260843, 47.561668606929565 ], [ -122.341313037314904, 47.562153568673459 ], [ -122.346064225394699, 47.562956637317704 ], [ -122.350675883961742, 47.564070064466939 ], [ -122.355103600223032, 47.565483107822857 ], [ -122.359304732850546, 47.567182135383497 ], [ -122.36323882264054, 47.569150757634766 ], [ -122.3668679821577, 47.571369986426156 ], [ -122.370157260612032, 47.573818418960954 ], [ -122.37307498045385, 47.576472445085479 ], [ -122.375593042446127, 47.57930647583656 ], [ -122.377687196275375, 47.582293191000964 ], [ -122.379337274095391, 47.585403803259581 ], [ -122.380527384754828, 47.588608336332662 ], [ -122.381246066837335, 47.591875914412654 ], [ -122.381486399041691, 47.595175060068485 ], [ -122.381246066837335, 47.598473997731169 ], [ -122.380527384754828, 47.601740959824731 ], [ -122.379337274095391, 47.60494449259015 ], [ -122.377687196275375, 47.608053758661129 ], [ -122.375593042446127, 47.611038833491179 ], [ -122.37307498045385, 47.61387099279834 ], [ -122.370157260612032, 47.616522988287905 ], [ -122.3668679821577, 47.618969309032877 ], [ -122.36323882264054, 47.621186426034512 ], [ -122.359304732850546, 47.623153017650949 ], [ -122.355103600223032, 47.624850173767847 ], [ -122.350675883961742, 47.626261576789638 ], [ -122.346064225394699, 47.62737365775147 ], [ -122.341313037314904, 47.628175726088244 ], [ -122.336468076260843, 47.628660071845836 ], [ -122.331576001856021, 47.628822039378775 ], [ -122.326683927451157, 47.628660071845836 ], [ -122.32183896639711, 47.628175726088244 ], [ -122.31708777831733, 47.62737365775147 ], [ -122.312476119750301, 47.626261576789638 ], [ -122.308048403488968, 47.624850173767847 ], [ -122.303847270861453, 47.623153017650949 ], [ -122.29991318107146, 47.621186426034512 ], [ -122.2962840215543, 47.618969309032877 ], [ -122.292994743099996, 47.616522988287905 ], [ -122.290077023258149, 47.61387099279834 ], [ -122.287558961265873, 47.611038833491179 ], [ -122.285464807436654, 47.608053758661129 ], [ -122.283814729616623, 47.60494449259015 ], [ -122.282624618957215, 47.601740959824731 ], [ -122.281905936874679, 47.598473997731169 ], [ -122.281665604670337, 47.595175060068485 ] ] ] } },
{ "type": "Feature", "properties": { "OBJECTID": 148, "GLOBAL_ID": "001E89FB-8863-4DAA-A124-33F86F1D4FB1", "NAME": "Alaska Airlines Field at Husky Stadium", "LATITUDE": "47-39-01.08N", "LONGITUDE": "122-18-05.61W", "CITY": "Seattle", "STATE": "WA", "STATUS_CODE": "Open", "OPENING_ON": null, "name_snake": "stadium_3nm", "priority": "high" }, "geometry": { "type": "Polygon", "coordinates": [ [ [ -122.251662835088283, 47.65030562225509 ], [ -122.251903167292639, 47.647009953935495 ], [ -122.252621849375174, 47.643745819739266 ], [ -122.253811960034582, 47.640544663929383 ], [ -122.255462037854599, 47.637437329785939 ], [ -122.257556191683847, 47.63445376201517 ], [ -122.260074253676123, 47.6316227176209 ], [ -122.262991973517941, 47.628971488051349 ], [ -122.266281251972273, 47.626525635332207 ], [ -122.269910411489434, 47.624308744766736 ], [ -122.273844501279427, 47.622342196627947 ], [ -122.278045633906942, 47.620644959086377 ], [ -122.28247335016826, 47.619233404412533 ], [ -122.287085008735275, 47.618121150267427 ], [ -122.291836196815069, 47.617318927649301 ], [ -122.296681157869131, 47.616834476803334 ], [ -122.301573232273967, 47.616672472125209 ], [ -122.306465306678817, 47.616834476803334 ], [ -122.311310267732878, 47.617318927649301 ], [ -122.316061455812672, 47.618121150267427 ], [ -122.320673114379687, 47.619233404412533 ], [ -122.325100830641006, 47.620644959086377 ], [ -122.32930196326852, 47.622342196627947 ], [ -122.333236053058513, 47.624308744766736 ], [ -122.336865212575674, 47.626525635332207 ], [ -122.340154491029978, 47.628971488051349 ], [ -122.343072210871824, 47.6316227176209 ], [ -122.345590272864101, 47.63445376201517 ], [ -122.34768442669332, 47.637437329785939 ], [ -122.349334504513365, 47.640544663929383 ], [ -122.350524615172773, 47.643745819739266 ], [ -122.351243297255309, 47.647009953935495 ], [ -122.351483629459636, 47.65030562225509 ], [ -122.351243297255309, 47.653601082618266 ], [ -122.350524615172773, 47.656864600936892 ], [ -122.349334504513365, 47.660064756615824 ], [ -122.34768442669332, 47.663170744809463 ], [ -122.345590272864101, 47.666152672535659 ], [ -122.343072210871824, 47.66898184581661 ], [ -122.340154491029978, 47.671631045109933 ], [ -122.336865212575674, 47.674074786412334 ], [ -122.333236053058513, 47.676289565561099 ], [ -122.32930196326852, 47.678254083423802 ], [ -122.325100830641006, 47.679949449852238 ], [ -122.320673114379687, 47.681359364481743 ], [ -122.316061455812672, 47.682470272677257 ], [ -122.311310267732878, 47.683271495164618 ], [ -122.306465306678817, 47.683755330133117 ], [ -122.301573232273967, 47.683917126854858 ], [ -122.296681157869131, 47.683755330133117 ], [ -122.291836196815069, 47.683271495164618 ], [ -122.287085008735275, 47.682470272677257 ], [ -122.28247335016826, 47.681359364481743 ], [ -122.278045633906942, 47.679949449852238 ], [ -122.273844501279427, 47.678254083423802 ], [ -122.269910411489434, 47.676289565561099 ], [ -122.266281251972273, 47.674074786412334 ], [ -122.262991973517941, 47.671631045109933 ], [ -122.260074253676123, 47.66898184581661 ], [ -122.257556191683847, 47.666152672535659 ], [ -122.255462037854599, 47.663170744809463 ], [ -122.253811960034582, 47.660064756615824 ], [ -122.252621849375174, 47.656864600936892 ], [ -122.251903167292639, 47.653601082618266 ], [ -122.251662835088283, 47.65030562225509 ] ] ] } }
]
}
