{
"type": "FeatureCollection",
"name": "faa_dof_queen_anne",
"crs": { "type": "name", "properties": { "name": "urn:ogc:def:crs:OGC:1.3:CRS84" } },
"features": [
{ "type": "Feature", "properties": { "oas": "53-000033", "state": "WA", "city": "SEATTLE", "obstacle_type": "TOWER", "agl_ft": 573, "amsl_ft": 1008, "lat": 47.631666666666668, "lon": -122.35083333333333 }, "geometry": { "type": "Polygon", "coordinates": [ [ [ -122.350434024233337, 47.631664406413051 ], [ -122.350436274863455, 47.631637960939614 ], [ -122.350442349377175, 47.631611791924321 ], [ -122.350452189268196, 47.631586151388454 ], [ -122.350465699767867, 47.631561286263427 ], [ -122.350482750758303, 47.631537436012707 ], [ -122.350503178025591, 47.631514830325699 ], [ -122.350526784841378, 47.631493686905799 ], [ -122.350553343857527, 47.631474209373799 ], [ -122.350582599295777, 47.631456585307063 ], [ -122.350614269410983, 47.631440984433056 ], [ -122.350648049204437, 47.631427556994872 ], [ -122.350683613361113, 47.631416432304398 ], [ -122.350720619382543, 47.631407717497019 ], [ -122.35075871088506, 47.631401496499919 ], [ -122.350797521031865, 47.631397829223815 ], [ -122.350836676065626, 47.631396750986106 ], [ -122.350875798907751, 47.631398272170649 ], [ -122.350914512789657, 47.631402378127873 ], [ -122.350952444880974, 47.631409029315776 ], [ -122.350989229880028, 47.63141816168077 ], [ -122.351024513531542, 47.631429687274448 ], [ -122.351057956038233, 47.631443495100591 ], [ -122.351089235333106, 47.631459452184018 ], [ -122.351118050181, 47.631477404851182 ], [ -122.351144123079592, 47.631497180210033 ], [ -122.351167202931961, 47.631518587814945 ], [ -122.351187067464664, 47.631541421500863 ], [ -122.351203525368518, 47.631565461368574 ], [ -122.351216418141135, 47.631590475902463 ], [ -122.351225621613523, 47.631616224200108 ], [ -122.351231047145973, 47.631642458292184 ], [ -122.351232642482103, 47.631668925530541 ], [ -122.351230392252134, 47.63169537102133 ], [ -122.351224318121268, 47.631721540079788 ], [ -122.351214478581213, 47.631747180682936 ], [ -122.351200968386976, 47.631772045896803 ], [ -122.351183917644804, 47.631795896254481 ], [ -122.351163490559074, 47.631818502062458 ], [ -122.351139883851133, 47.631839645612715 ], [ -122.351113324864954, 47.631859123279419 ], [ -122.351084069377706, 47.63187674748005 ], [ -122.351052399136336, 47.631892348481976 ], [ -122.351018619144483, 47.631905776037222 ], [ -122.350983054724736, 47.631916900829381 ], [ -122.350946048385723, 47.631925615719148 ], [ -122.350907956523272, 47.631931836776197 ], [ -122.350869145988014, 47.631935504087487 ], [ -122.350829990552242, 47.631936582334284 ], [ -122.350790867309996, 47.63193506113236 ], [ -122.350752153045207, 47.631930955131985 ], [ -122.350714220602967, 47.631924303876787 ], [ -122.350677435298451, 47.631915171422975 ], [ -122.350642151398688, 47.631903645722325 ], [ -122.350608708710439, 47.631889837775198 ], [ -122.350577429307748, 47.631873880561429 ], [ -122.350548614429854, 47.63185592775956 ], [ -122.350522541580276, 47.631836152266828 ], [ -122.350499461854056, 47.631814744533976 ], [ -122.350479597519779, 47.631791910731017 ], [ -122.350463139878983, 47.631767870761621 ], [ -122.35045024742395, 47.631742856145337 ], [ -122.350441044311495, 47.631717107787743 ], [ -122.35043561916747, 47.631690873660474 ], [ -122.350434024233337, 47.631664406413051 ] ] ] } },
{ "type": "Feature", "properties": { "oas": "53-000053", "state": "WA", "city": "SEATTLE", "obstacle_type": "TOWER", "agl_ft": 564, "amsl_ft": 1015, "lat": 47.632152777777776, "lon": -122.35396388888888 }, "geometry": { "type": "Polygon", "coordinates": [ [ [ -122.35356457583886, 47.632150528403031 ], [ -122.353566824913528, 47.632124082863108 ], [ -122.353572897924892, 47.632097913677178 ], [ -122.353582736380986, 47.632072272868193 ], [ -122.353596245527086, 47.632047407370202 ], [ -122.353613295258285, 47.632023556650218 ], [ -122.353633721372816, 47.632000950402244 ], [ -122.353657327153385, 47.631979806335025 ], [ -122.353683885261887, 47.631960328075621 ], [ -122.353713139928786, 47.631942703208345 ], [ -122.353744809416327, 47.63192710146842 ], [ -122.353778588731871, 47.631913673107263 ], [ -122.353814152565008, 47.631902547445648 ], [ -122.353851158420355, 47.631893831628332 ], [ -122.353889249915881, 47.631887609592198 ], [ -122.353928060214827, 47.631883941257996 ], [ -122.353967215558384, 47.631882861953272 ], [ -122.354006338865034, 47.631884382072215 ], [ -122.354045053361659, 47.63188848697547 ], [ -122.354082986212006, 47.631895137131224 ], [ -122.354119772107055, 47.631904268495774 ], [ -122.354155056782915, 47.631915793130389 ], [ -122.354188500432457, 47.631929600048096 ], [ -122.354219780977687, 47.631945556282432 ], [ -122.354248597171377, 47.631963508168049 ], [ -122.354274671498274, 47.6319832828204 ], [ -122.354297752847643, 47.632004689800674 ], [ -122.35431761893166, 47.632027522949841 ], [ -122.354334078426234, 47.63205156237386 ], [ -122.354346972813616, 47.632076576561388 ], [ -122.354356177909281, 47.632102324613321 ], [ -122.354361605057903, 47.632128558562712 ], [ -122.35436320198751, 47.632155025762771 ], [ -122.354360953312963, 47.632181471320052 ], [ -122.354354880684511, 47.632207640549119 ], [ -122.354345042579354, 47.632233281425371 ], [ -122.354331533738772, 47.632258147012188 ], [ -122.354314484255866, 47.632281997839101 ], [ -122.354294058322935, 47.632304604208052 ], [ -122.35427045265024, 47.632325748405613 ], [ -122.354243894571766, 47.63234522679975 ], [ -122.354214639855925, 47.632362851800899 ], [ -122.354182970242277, 47.632378453668771 ], [ -122.354149190728336, 47.632391882146983 ], [ -122.35411362663217, 47.632403007910291 ], [ -122.354076620459253, 47.632411723810009 ], [ -122.354038528603823, 47.63241794590612 ], [ -122.353999717916437, 47.632421614275536 ], [ -122.353960562170826, 47.632422693589348 ], [ -122.35392143846407, 47.632421173453068 ], [ -122.353882723584533, 47.632417068506676 ], [ -122.353844790383263, 47.632410418283655 ], [ -122.353808004182696, 47.63240128683028 ], [ -122.353772719258529, 47.632389762088714 ], [ -122.353739275427387, 47.632375955050044 ], [ -122.353707994774268, 47.632359998685367 ], [ -122.35367917855055, 47.632342046665045 ], [ -122.353653104272638, 47.632322271878792 ], [ -122.353630023049348, 47.632300864770563 ], [ -122.353610157163729, 47.632278031504335 ], [ -122.353593697932169, 47.632253991978622 ], [ -122.353580803862357, 47.632228977708692 ], [ -122.353571599126624, 47.632203229596797 ], [ -122.353566172366428, 47.632176995612198 ], [ -122.35356457583886, 47.632150528403031 ] ] ] } },
{ "type": "Feature", "properties": { "oas": "53-000036", "state": "WA", "city": "SEATTLE", "obstacle_type": "TOWER", "agl_ft": 616, "amsl_ft": 1018, "lat": 47.633005555555556, "lon": -122.35657777777777 }, "geometry": { "type": "Polygon", "coordinates": [ [ [ -122.356178458026008, 47.63300331524858 ], [ -122.356180705823405, 47.63297686965533 ], [ -122.356186777634321, 47.632950700329275 ], [ -122.356196614978415, 47.632925059294685 ], [ -122.35621012311158, 47.632900193487799 ], [ -122.35622717193877, 47.632876342378623 ], [ -122.356247597266815, 47.632853735664881 ], [ -122.356271202386054, 47.632832591059802 ], [ -122.356297759964747, 47.632813112195613 ], [ -122.35632701423846, 47.632795486662523 ], [ -122.356358683473204, 47.632779884202094 ], [ -122.356392462678812, 47.632766455072705 ], [ -122.356428026545899, 47.632755328602542 ], [ -122.356465032578768, 47.632746611944114 ], [ -122.356503124393669, 47.632740389042439 ], [ -122.356541935150773, 47.632736719826582 ], [ -122.356581091086881, 47.6327356396326 ], [ -122.356620215114717, 47.632737158863222 ], [ -122.356658930454245, 47.632741262887663 ], [ -122.35669686426111, 47.632747912182566 ], [ -122.35673365121707, 47.632757042712512 ], [ -122.356768937048017, 47.632768566546844 ], [ -122.356802381935708, 47.632782372706245 ], [ -122.356833663790198, 47.632798328231587 ], [ -122.356862481351669, 47.632816279464329 ], [ -122.356888557091693, 47.632836053526226 ], [ -122.356911639885951, 47.632857459984187 ], [ -122.356931507432662, 47.632880292684135 ], [ -122.356947968393669, 47.632904331736412 ], [ -122.356960864237124, 47.632929345633244 ], [ -122.356970070764419, 47.632955093478316 ], [ -122.356975499306472, 47.632981327306673 ], [ -122.356977097577925, 47.633007794472718 ], [ -122.356974850180677, 47.633034240083305 ], [ -122.356968778752673, 47.633060409452497 ], [ -122.356958941759572, 47.633086050554333 ], [ -122.356945433931955, 47.633110916450022 ], [ -122.356928385353143, 47.633134767666135 ], [ -122.356907960206712, 47.633157374500868 ], [ -122.356884355195405, 47.633178519236282 ], [ -122.356857797646768, 47.633197998235175 ], [ -122.356828543324127, 47.633215623902181 ], [ -122.356796873963305, 47.633231226490544 ], [ -122.356763094559341, 47.633244655737002 ], [ -122.356727530429254, 47.633255782308886 ], [ -122.356690524078815, 47.633264499049723 ], [ -122.356652431903996, 47.633270722011389 ], [ -122.356613620758466, 47.633274391262468 ], [ -122.356574464420305, 47.633275471465566 ], [ -122.35653533999232, 47.633273952217628 ], [ -122.356496624269838, 47.633269848150057 ], [ -122.356458690112007, 47.633263198787894 ], [ -122.356421902850485, 47.63325406816913 ], [ -122.356386616771189, 47.633242544227862 ], [ -122.356353171701869, 47.633228737947498 ], [ -122.356321889739462, 47.633212782291814 ], [ -122.356293072147906, 47.633194830924367 ], [ -122.356266996456824, 47.633175056728554 ], [ -122.35624391378866, 47.63315365014266 ], [ -122.356224046440275, 47.633130817325622 ], [ -122.356207585742283, 47.63310677817163 ], [ -122.356194690216412, 47.63308176419239 ], [ -122.356185484049021, 47.633056016287341 ], [ -122.356180055895408, 47.633029782423755 ], [ -122.356178458026008, 47.63300331524858 ] ] ] } }
]
}
